{
  "norad_id": 56722,
  "name": "ONEWEB-0694",
  "history": [
    {
      "epoch": "2026-03-28T21:09:34.233408Z",
      "apogee_km": 1198.8197263193751,
      "perigee_km": 1196.68620418736,
      "latitude_deg": 6.49952632973334e-06,
      "longitude_deg": 101.02253494966786,
      "height_km": 1200.5849402454207,
      "semi_major_axis_km": 7575.889965253367,
      "eccentricity": 0.00014081,
      "inclination_deg": 87.9043,
      "raan_deg": 244.7109,
      "arg_perigee_deg": 86.6351,
      "mean_anomaly_deg": 273.4941,
      "mean_motion_rev_day": 13.16595222
    },
    {
      "epoch": "2026-03-29T04:27:18.774144Z",
      "apogee_km": 1198.8165800672596,
      "perigee_km": 1196.6907851417218,
      "latitude_deg": -3.5848543079938475e-05,
      "longitude_deg": -8.773376932896335,
      "height_km": 1200.586428047963,
      "semi_major_axis_km": 7575.89068260449,
      "eccentricity": 0.0001403,
      "inclination_deg": 87.9042,
      "raan_deg": 244.6502,
      "arg_perigee_deg": 86.6637,
      "mean_anomaly_deg": 273.4654,
      "mean_motion_rev_day": 13.16595035
    }
  ]
}